start=new Date('2022-05-19T00:00:00.000Z').valueOf();
sats=[{"OBJECT_TYPE":"PAYLOAD","TLE_LINE2":"2 51991  53.2173 162.5357 0001653  49.1500 254.2330 15.08835125  1302","MEAN_ELEMENT_THEORY":"SGP4","PERIAPSIS":"538.617","DECAY_DATE":null,"APOAPSIS":"540.904","SITE":"AFETR","TLE_LINE1":"1 51991U 22025AM  22138.91667824  .00003308  00000-0  22587-3 0  9996","EPOCH":"2022-05-18T22:00:00.999936","REF_FRAME":"TEME","MEAN_MOTION_DOT":"0.00003308","EPHEMERIS_TYPE":"0","FILE":"3452356","OBJECT_ID":"2022-025AM","LAUNCH_DATE":"2022-03-09","REV_AT_EPOCH":"130","GP_ID":"203908135","RA_OF_ASC_NODE":"162.5357","MEAN_MOTION_DDOT":"0.0000000000000","BSTAR":"0.00022587000000","OBJECT_NAME":"STARLINK-3652","SEMIMAJOR_AXIS":"6917.895","MEAN_MOTION":"15.08835125","TIME_SYSTEM":"UTC","INCLINATION":"53.2173","ELEMENT_SET_NO":"999","ARG_OF_PERICENTER":"49.1500","COUNTRY_CODE":"US","CLASSIFICATION_TYPE":"U","CENTER_NAME":"EARTH","PERIOD":"95.438","MEAN_ANOMALY":"254.2330","ECCENTRICITY":"0.00016530","RCS_SIZE":"LARGE","NORAD_CAT_ID":"51991"},{"SITE":"AFETR","EPOCH":"2022-05-18T22:00:00.999936","TLE_LINE1":"1 51992U 22025AN  22138.91667824 -.00700749  00000-0 -61459-2 0  9992","PERIAPSIS":"355.670","DECAY_DATE":null,"APOAPSIS":"360.898","MEAN_ELEMENT_THEORY":"SGP4","TLE_LINE2":"2 51992  53.2172 151.5597 0003880 305.3994 354.3013 15.70215062  1305","OBJECT_TYPE":"PAYLOAD","GP_ID":"203908233","RA_OF_ASC_NODE":"151.5597","REV_AT_EPOCH":"130","OBJECT_ID":"2022-025AN","LAUNCH_DATE":"2022-03-09","REF_FRAME":"TEME","MEAN_MOTION_DOT":"-0.00700749","FILE":"3452356","EPHEMERIS_TYPE":"0","ELEMENT_SET_NO":"999","ARG_OF_PERICENTER":"305.3994","INCLINATION":"53.2172","TIME_SYSTEM":"UTC","MEAN_MOTION":"15.70215062","SEMIMAJOR_AXIS":"6736.419","OBJECT_NAME":"STARLINK-3643","MEAN_MOTION_DDOT":"0.0000000000000","BSTAR":"-0.00614590000000","NORAD_CAT_ID":"51992","RCS_SIZE":"LARGE","ECCENTRICITY":"0.00038800","MEAN_ANOMALY":"354.3013","CLASSIFICATION_TYPE":"U","COUNTRY_CODE":"US","PERIOD":"91.707","CENTER_NAME":"EARTH"},{"COUNTRY_CODE":"US","CLASSIFICATION_TYPE":"U","PERIOD":"95.430","CENTER_NAME":"EARTH","MEAN_ANOMALY":"314.4986","ECCENTRICITY":"0.00016340","RCS_SIZE":"LARGE","NORAD_CAT_ID":"51993","MEAN_MOTION_DDOT":"0.0000000000000","BSTAR":"-0.01125300000000","OBJECT_NAME":"STARLINK-3648","SEMIMAJOR_AXIS":"6917.532","MEAN_MOTION":"15.08954114","TIME_SYSTEM":"UTC","ELEMENT_SET_NO":"999","INCLINATION":"53.2173","ARG_OF_PERICENTER":"48.8224","REF_FRAME":"TEME","MEAN_MOTION_DOT":"-0.00175596","FILE":"3452356","EPHEMERIS_TYPE":"0","OBJECT_ID":"2022-025AP","LAUNCH_DATE":"2022-03-09","REV_AT_EPOCH":"130","RA_OF_ASC_NODE":"162.5353","GP_ID":"203908038","OBJECT_TYPE":"PAYLOAD","MEAN_ELEMENT_THEORY":"SGP4","TLE_LINE2":"2 51993  53.2173 162.5353 0001634  48.8224 314.4986 15.08954114  1304","PERIAPSIS":"538.266","DECAY_DATE":null,"APOAPSIS":"540.527","SITE":"AFETR","TLE_LINE1":"1 51993U 22025AP  22138.91667824 -.00175596  00000-0 -11253-1 0  9995","EPOCH":"2022-05-18T22:00:00.999936"},{"TLE_LINE2":"2 51994  53.2172 151.5605 0004703 303.9682 356.4003 15.70219976  1300","MEAN_ELEMENT_THEORY":"SGP4","OBJECT_TYPE":"PAYLOAD","SITE":"AFETR","EPOCH":"2022-05-18T22:00:00.999936","TLE_LINE1":"1 51994U 22025AQ  22138.91667824 -.00701756  00000-0 -61517-2 0  9998","DECAY_DATE":null,"PERIAPSIS":"355.102","APOAPSIS":"361.438","REF_FRAME":"TEME","MEAN_MOTION_DOT":"-0.00701756","EPHEMERIS_TYPE":"0","FILE":"3452356","REV_AT_EPOCH":"130","RA_OF_ASC_NODE":"151.5605","GP_ID":"203908331","OBJECT_ID":"2022-025AQ","LAUNCH_DATE":"2022-03-09","OBJECT_NAME":"STARLINK-3647","MEAN_MOTION_DDOT":"0.0000000000000","BSTAR":"-0.00615170000000","TIME_SYSTEM":"UTC","ELEMENT_SET_NO":"999","ARG_OF_PERICENTER":"303.9682","INCLINATION":"53.2172","SEMIMAJOR_AXIS":"6736.405","MEAN_MOTION":"15.70219976","MEAN_ANOMALY":"356.4003","ECCENTRICITY":"0.00047030","COUNTRY_CODE":"US","CLASSIFICATION_TYPE":"U","PERIOD":"91.707","CENTER_NAME":"EARTH","RCS_SIZE":"LARGE","NORAD_CAT_ID":"51994"},{"FILE":"3452356","EPHEMERIS_TYPE":"0","REF_FRAME":"TEME","MEAN_MOTION_DOT":"-0.00700844","LAUNCH_DATE":"2022-03-09","OBJECT_ID":"2022-025AR","RA_OF_ASC_NODE":"151.5578","GP_ID":"203908470","REV_AT_EPOCH":"130","OBJECT_TYPE":"PAYLOAD","TLE_LINE2":"2 51995  53.2171 151.5578 0004593 298.8309 359.5335 15.70206338  1304","MEAN_ELEMENT_THEORY":"SGP4","APOAPSIS":"361.403","DECAY_DATE":null,"PERIAPSIS":"355.215","TLE_LINE1":"1 51995U 22025AR  22138.91667824 -.00700844  00000-0 -61469-2 0  9992","EPOCH":"2022-05-18T22:00:00.999936","SITE":"AFETR","PERIOD":"91.708","CENTER_NAME":"EARTH","CLASSIFICATION_TYPE":"U","COUNTRY_CODE":"US","ECCENTRICITY":"0.00045930","MEAN_ANOMALY":"359.5335","NORAD_CAT_ID":"51995","RCS_SIZE":"LARGE","BSTAR":"-0.00614690000000","MEAN_MOTION_DDOT":"0.0000000000000","OBJECT_NAME":"STARLINK-3636","MEAN_MOTION":"15.70206338","SEMIMAJOR_AXIS":"6736.444","INCLINATION":"53.2171","ELEMENT_SET_NO":"999","ARG_OF_PERICENTER":"298.8309","TIME_SYSTEM":"UTC"},{"OBJECT_NAME":"STARLINK-3538","BSTAR":"-0.00615020000000","MEAN_MOTION_DDOT":"0.0000000000000","INCLINATION":"53.2172","ELEMENT_SET_NO":"999","ARG_OF_PERICENTER":"314.7589","TIME_SYSTEM":"UTC","MEAN_MOTION":"15.70224138","SEMIMAJOR_AXIS":"6736.393","ECCENTRICITY":"0.00034920","MEAN_ANOMALY":"346.2778","CENTER_NAME":"EARTH","PERIOD":"91.707","CLASSIFICATION_TYPE":"U","COUNTRY_CODE":"US","NORAD_CAT_ID":"51996","RCS_SIZE":"LARGE","MEAN_ELEMENT_THEORY":"SGP4","TLE_LINE2":"2 51996  53.2172 151.5613 0003492 314.7589 346.2778 15.70224138  1303","OBJECT_TYPE":"PAYLOAD","TLE_LINE1":"1 51996U 22025AS  22138.91667824 -.00701333  00000-0 -61502-2 0  9995","EPOCH":"2022-05-18T22:00:00.999936","SITE":"AFETR","APOAPSIS":"360.610","PERIAPSIS":"355.906","DECAY_DATE":null,"EPHEMERIS_TYPE":"0","FILE":"3452356","MEAN_MOTION_DOT":"-0.00701333","REF_FRAME":"TEME","RA_OF_ASC_NODE":"151.5613","GP_ID":"203908567","REV_AT_EPOCH":"130","LAUNCH_DATE":"2022-03-09","OBJECT_ID":"2022-025AS"},{"NORAD_CAT_ID":"51997","RCS_SIZE":"LARGE","CENTER_NAME":"EARTH","PERIOD":"91.707","CLASSIFICATION_TYPE":"U","COUNTRY_CODE":"US","ECCENTRICITY":"0.00034050","MEAN_ANOMALY":"345.0171","MEAN_MOTION":"15.70210855","SEMIMAJOR_AXIS":"6736.431","ARG_OF_PERICENTER":"314.0155","ELEMENT_SET_NO":"999","INCLINATION":"53.2172","TIME_SYSTEM":"UTC","BSTAR":"-0.00615060000000","MEAN_MOTION_DDOT":"0.0000000000000","OBJECT_NAME":"STARLINK-3589","LAUNCH_DATE":"2022-03-09","OBJECT_ID":"2022-025AT","RA_OF_ASC_NODE":"151.5586","GP_ID":"203908373","REV_AT_EPOCH":"130","FILE":"3452356","EPHEMERIS_TYPE":"0","MEAN_MOTION_DOT":"-0.00700989","REF_FRAME":"TEME","APOAPSIS":"360.590","DECAY_DATE":null,"PERIAPSIS":"356.002","TLE_LINE1":"1 51997U 22025AT  22138.91667824 -.00700989  00000-0 -61506-2 0  9996","EPOCH":"2022-05-18T22:00:00.999936","SITE":"AFETR","OBJECT_TYPE":"PAYLOAD","MEAN_ELEMENT_THEORY":"SGP4","TLE_LINE2":"2 51997  53.2172 151.5586 0003405 314.0155 345.0171 15.70210855  1304"},{"OBJECT_ID":"2022-025AU","LAUNCH_DATE":"2022-03-09","REV_AT_EPOCH":"130","GP_ID":"203908664","RA_OF_ASC_NODE":"151.5760","MEAN_MOTION_DOT":"-0.00701659","REF_FRAME":"TEME","EPHEMERIS_TYPE":"0","FILE":"3452356","PERIAPSIS":"355.174","DECAY_DATE":null,"APOAPSIS":"361.286","SITE":"AFETR","TLE_LINE1":"1 51998U 22025AU  22138.91667824 -.00701659  00000-0 -61477-2 0  9999","EPOCH":"2022-05-18T22:00:00.999936","OBJECT_TYPE":"PAYLOAD","MEAN_ELEMENT_THEORY":"SGP4","TLE_LINE2":"2 51998  53.2172 151.5760 0004537 302.9192 359.4520 15.70233942  1302","RCS_SIZE":"LARGE","NORAD_CAT_ID":"51998","COUNTRY_CODE":"US","CLASSIFICATION_TYPE":"U","CENTER_NAME":"EARTH","PERIOD":"91.706","MEAN_ANOMALY":"359.4520","ECCENTRICITY":"0.00045370","SEMIMAJOR_AXIS":"6736.365","MEAN_MOTION":"15.70233942","TIME_SYSTEM":"UTC","ARG_OF_PERICENTER":"302.9192","ELEMENT_SET_NO":"999","INCLINATION":"53.2172","MEAN_MOTION_DDOT":"0.0000000000000","BSTAR":"-0.00614770000000","OBJECT_NAME":"STARLINK-3618"},{"MEAN_ANOMALY":"1.0029","ECCENTRICITY":"0.00051840","COUNTRY_CODE":"US","CLASSIFICATION_TYPE":"U","CENTER_NAME":"EARTH","PERIOD":"91.706","RCS_SIZE":"LARGE","NORAD_CAT_ID":"51999","OBJECT_NAME":"STARLINK-3667","MEAN_MOTION_DDOT":"0.0000000000000","BSTAR":"-0.00615310000000","TIME_SYSTEM":"UTC","INCLINATION":"53.2172","ELEMENT_SET_NO":"999","ARG_OF_PERICENTER":"300.7016","SEMIMAJOR_AXIS":"6736.379","MEAN_MOTION":"15.70228959","MEAN_MOTION_DOT":"-0.00702314","REF_FRAME":"TEME","FILE":"3452356","EPHEMERIS_TYPE":"0","REV_AT_EPOCH":"130","GP_ID":"203908136","RA_OF_ASC_NODE":"151.5614","OBJECT_ID":"2022-025AV","LAUNCH_DATE":"2022-03-09","TLE_LINE2":"2 51999  53.2172 151.5614 0005184 300.7016   1.0029 15.70228959  1307","MEAN_ELEMENT_THEORY":"SGP4","OBJECT_TYPE":"PAYLOAD","SITE":"AFETR","EPOCH":"2022-05-18T22:00:00.999936","TLE_LINE1":"1 51999U 22025AV  22138.91667824 -.00702314  00000-0 -61531-2 0  9990","PERIAPSIS":"354.752","DECAY_DATE":null,"APOAPSIS":"361.736"},{"MEAN_ANOMALY":"3.1532","ECCENTRICITY":"0.00047410","COUNTRY_CODE":"US","CLASSIFICATION_TYPE":"U","PERIOD":"91.706","CENTER_NAME":"EARTH","RCS_SIZE":"LARGE","NORAD_CAT_ID":"52000","OBJECT_NAME":"STARLINK-3653","MEAN_MOTION_DDOT":"0.0000000000000","BSTAR":"-0.00614650000000","TIME_SYSTEM":"UTC","ELEMENT_SET_NO":"999","INCLINATION":"53.2172","ARG_OF_PERICENTER":"300.5537","SEMIMAJOR_AXIS":"6736.340","MEAN_MOTION":"15.70242734","REF_FRAME":"TEME","MEAN_MOTION_DOT":"-0.00701840","FILE":"3452356","EPHEMERIS_TYPE":"0","REV_AT_EPOCH":"130","GP_ID":"203908234","RA_OF_ASC_NODE":"151.5770","OBJECT_ID":"2022-025AW","LAUNCH_DATE":"2022-03-09","MEAN_ELEMENT_THEORY":"SGP4","TLE_LINE2":"2 52000  53.2172 151.5770 0004741 300.5537   3.1532 15.70242734  1307","OBJECT_TYPE":"PAYLOAD","SITE":"AFETR","EPOCH":"2022-05-18T22:00:00.999936","TLE_LINE1":"1 52000U 22025AW  22138.91667824 -.00701840  00000-0 -61465-2 0  9993","DECAY_DATE":null,"PERIAPSIS":"355.011","APOAPSIS":"361.398"}];
